{
  "type": "FeatureCollection",
  "features": [
    {
      "type": "Feature",
      "properties": {
        "norad_id": 28890,
        "name": "BEIJING 1",
        "group": "dmc",
        "lat": -14.867368183535397,
        "lon": 123.68117305452233,
        "alt_km": 694.7897678267009,
        "timestamp": "2025-12-19T22:41:52.045848+00:00",
        "meta_object_name": "BEIJING 1",
        "meta_object_id": "2005-043A",
        "meta_epoch": "2025-12-19T19:29:03.770880",
        "meta_mean_motion": 14.63373689,
        "meta_eccentricity": 0.0015661,
        "meta_inclination": 98.2655,
        "meta_ra_of_asc_node": 121.3354,
        "meta_arg_of_pericenter": 120.3242,
        "meta_mean_anomaly": 239.9511,
        "meta_ephemeris_type": 0,
        "meta_classification_type": "U",
        "meta_norad_cat_id": 28890,
        "meta_element_set_no": 999,
        "meta_rev_at_epoch": 7441,
        "meta_bstar": 0.00013101,
        "meta_mean_motion_dot": 6.29e-06,
        "meta_mean_motion_ddot": 0,
        "tle_line1": "1 28890U 05043A   25353.81184920  .00000629  00000+0  13101-3 0  9995",
        "tle_line2": "2 28890  98.2655 121.3354 0015661 120.3242 239.9511 14.63373689 74412"
      },
      "geometry": {
        "type": "Point",
        "coordinates": [
          123.68117305452233,
          -14.867368183535397
        ]
      }
    },
    {
      "type": "Feature",
      "properties": {
        "norad_id": 33320,
        "name": "HUANJING 1A (HJ-1A)",
        "group": "dmc",
        "lat": 8.462694335153657,
        "lon": 163.0896931508912,
        "alt_km": 633.3424156783431,
        "timestamp": "2025-12-19T22:41:52.045872+00:00",
        "meta_object_name": "HUANJING 1A (HJ-1A)",
        "meta_object_id": "2008-041A",
        "meta_epoch": "2025-12-19T18:41:26.213568",
        "meta_mean_motion": 14.83413363,
        "meta_eccentricity": 0.0019654,
        "meta_inclination": 97.6535,
        "meta_ra_of_asc_node": 341.7833,
        "meta_arg_of_pericenter": 12.0503,
        "meta_mean_anomaly": 348.1178,
        "meta_ephemeris_type": 0,
        "meta_classification_type": "U",
        "meta_norad_cat_id": 33320,
        "meta_element_set_no": 999,
        "meta_rev_at_epoch": 93180,
        "meta_bstar": 9.4393e-05,
        "meta_mean_motion_dot": 7.26e-06,
        "meta_mean_motion_ddot": 0,
        "tle_line1": "1 33320U 08041A   25353.77877562  .00000726  00000+0  94393-4 0  9997",
        "tle_line2": "2 33320  97.6535 341.7833 0019654  12.0503 348.1178 14.83413363931802"
      },
      "geometry": {
        "type": "Point",
        "coordinates": [
          163.0896931508912,
          8.462694335153657
        ]
      }
    },
    {
      "type": "Feature",
      "properties": {
        "norad_id": 33321,
        "name": "HUANJING 1B (HJ-1B)",
        "group": "dmc",
        "lat": 16.93602729102009,
        "lon": -16.72097508864322,
        "alt_km": 599.3384846043909,
        "timestamp": "2025-12-19T22:41:52.045887+00:00",
        "meta_object_name": "HUANJING 1B (HJ-1B)",
        "meta_object_id": "2008-041B",
        "meta_epoch": "2025-12-19T19:22:56.416224",
        "meta_mean_motion": 14.82838657,
        "meta_eccentricity": 0.0038024,
        "meta_inclination": 97.6394,
        "meta_ra_of_asc_node": 345.4894,
        "meta_arg_of_pericenter": 53.4452,
        "meta_mean_anomaly": 307.0252,
        "meta_ephemeris_type": 0,
        "meta_classification_type": "U",
        "meta_norad_cat_id": 33321,
        "meta_element_set_no": 999,
        "meta_rev_at_epoch": 93182,
        "meta_bstar": 0.00013557,
        "meta_mean_motion_dot": 1.059e-05,
        "meta_mean_motion_ddot": 0,
        "tle_line1": "1 33321U 08041B   25353.80759741  .00001059  00000+0  13557-3 0  9992",
        "tle_line2": "2 33321  97.6394 345.4894 0038024  53.4452 307.0252 14.82838657931823"
      },
      "geometry": {
        "type": "Point",
        "coordinates": [
          -16.72097508864322,
          16.93602729102009
        ]
      }
    },
    {
      "type": "Feature",
      "properties": {
        "norad_id": 33446,
        "name": "YAOGAN-4",
        "group": "dmc",
        "lat": -72.52463228012795,
        "lon": -49.78590692463872,
        "alt_km": 619.1162794515731,
        "timestamp": "2025-12-19T22:41:52.045900+00:00",
        "meta_object_name": "YAOGAN-4",
        "meta_object_id": "2008-061A",
        "meta_epoch": "2025-12-19T10:04:29.303904",
        "meta_mean_motion": 14.8270055,
        "meta_eccentricity": 0.0013167,
        "meta_inclination": 97.919,
        "meta_ra_of_asc_node": 283.4536,
        "meta_arg_of_pericenter": 299.8838,
        "meta_mean_anomaly": 60.1067,
        "meta_ephemeris_type": 0,
        "meta_classification_type": "U",
        "meta_norad_cat_id": 33446,
        "meta_element_set_no": 999,
        "meta_rev_at_epoch": 91902,
        "meta_bstar": 0.00012167,
        "meta_mean_motion_dot": 9.29e-06,
        "meta_mean_motion_ddot": 0,
        "tle_line1": "1 33446U 08061A   25353.41978361  .00000929  00000+0  12167-3 0  9991",
        "tle_line2": "2 33446  97.9190 283.4536 0013167 299.8838  60.1067 14.82700550919026"
      },
      "geometry": {
        "type": "Point",
        "coordinates": [
          -49.78590692463872,
          -72.52463228012795
        ]
      }
    },
    {
      "type": "Feature",
      "properties": {
        "norad_id": 35681,
        "name": "DEIMOS-1",
        "group": "dmc",
        "lat": -34.77928202024675,
        "lon": -31.188497894969046,
        "alt_km": 653.0820925290818,
        "timestamp": "2025-12-19T22:41:52.045911+00:00",
        "meta_object_name": "DEIMOS-1",
        "meta_object_id": "2009-041A",
        "meta_epoch": "2025-12-19T18:28:10.900704",
        "meta_mean_motion": 14.74964491,
        "meta_eccentricity": 0.0002619,
        "meta_inclination": 97.7142,
        "meta_ra_of_asc_node": 154.0452,
        "meta_arg_of_pericenter": 68.2705,
        "meta_mean_anomaly": 291.8784,
        "meta_ephemeris_type": 0,
        "meta_classification_type": "U",
        "meta_norad_cat_id": 35681,
        "meta_element_set_no": 999,
        "meta_rev_at_epoch": 88043,
        "meta_bstar": 0.00014,
        "meta_mean_motion_dot": 8.94e-06,
        "meta_mean_motion_ddot": 0,
        "tle_line1": "1 35681U 09041A   25353.76957061  .00000894  00000+0  14000-3 0  9994",
        "tle_line2": "2 35681  97.7142 154.0452 0002619  68.2705 291.8784 14.74964491880433"
      },
      "geometry": {
        "type": "Point",
        "coordinates": [
          -31.188497894969046,
          -34.77928202024675
        ]
      }
    },
    {
      "type": "Feature",
      "properties": {
        "norad_id": 35683,
        "name": "UK-DMC 2",
        "group": "dmc",
        "lat": -66.35650261568334,
        "lon": -69.73893206662738,
        "alt_km": 651.3206757437574,
        "timestamp": "2025-12-19T22:41:52.045923+00:00",
        "meta_object_name": "UK-DMC 2",
        "meta_object_id": "2009-041C",
        "meta_epoch": "2025-12-19T18:19:27.982848",
        "meta_mean_motion": 14.75637614,
        "meta_eccentricity": 0.0001501,
        "meta_inclination": 97.856,
        "meta_ra_of_asc_node": 128.4678,
        "meta_arg_of_pericenter": 94.0498,
        "meta_mean_anomaly": 266.0883,
        "meta_ephemeris_type": 0,
        "meta_classification_type": "U",
        "meta_norad_cat_id": 35683,
        "meta_element_set_no": 999,
        "meta_rev_at_epoch": 88010,
        "meta_bstar": 0.00016543,
        "meta_mean_motion_dot": 1.08e-05,
        "meta_mean_motion_ddot": 0,
        "tle_line1": "1 35683U 09041C   25353.76351832  .00001080  00000+0  16543-3 0  9992",
        "tle_line2": "2 35683  97.8560 128.4678 0001501  94.0498 266.0883 14.75637614880103"
      },
      "geometry": {
        "type": "Point",
        "coordinates": [
          -69.73893206662738,
          -66.35650261568334
        ]
      }
    },
    {
      "type": "Feature",
      "properties": {
        "norad_id": 40715,
        "name": "DMC3-FM1",
        "group": "dmc",
        "lat": -10.695440553057411,
        "lon": 39.41683387485471,
        "alt_km": 617.0727979172725,
        "timestamp": "2025-12-19T22:41:52.045934+00:00",
        "meta_object_name": "DMC3-FM1",
        "meta_object_id": "2015-032A",
        "meta_epoch": "2025-12-19T18:36:29.979072",
        "meta_mean_motion": 14.85449929,
        "meta_eccentricity": 0.000426,
        "meta_inclination": 97.669,
        "meta_ra_of_asc_node": 220.711,
        "meta_arg_of_pericenter": 292.5462,
        "meta_mean_anomaly": 67.5302,
        "meta_ephemeris_type": 0,
        "meta_classification_type": "U",
        "meta_norad_cat_id": 40715,
        "meta_element_set_no": 999,
        "meta_rev_at_epoch": 56327,
        "meta_bstar": 3.7201e-05,
        "meta_mean_motion_dot": 2.69e-06,
        "meta_mean_motion_ddot": 0,
        "tle_line1": "1 40715U 15032A   25353.77534698  .00000269  00000+0  37201-4 0  9998",
        "tle_line2": "2 40715  97.6690 220.7110 0004260 292.5462  67.5302 14.85449929563272"
      },
      "geometry": {
        "type": "Point",
        "coordinates": [
          39.41683387485471,
          -10.695440553057411
        ]
      }
    },
    {
      "type": "Feature",
      "properties": {
        "norad_id": 40716,
        "name": "DMC3-FM2",
        "group": "dmc",
        "lat": 69.136377678505,
        "lon": -158.39655214000607,
        "alt_km": 607.7204059724972,
        "timestamp": "2025-12-19T22:41:52.045945+00:00",
        "meta_object_name": "DMC3-FM2",
        "meta_object_id": "2015-032B",
        "meta_epoch": "2025-12-19T17:31:52.902624",
        "meta_mean_motion": 14.85453343,
        "meta_eccentricity": 0.0004799,
        "meta_inclination": 97.6749,
        "meta_ra_of_asc_node": 222.1166,
        "meta_arg_of_pericenter": 298.9255,
        "meta_mean_anomaly": 61.1479,
        "meta_ephemeris_type": 0,
        "meta_classification_type": "U",
        "meta_norad_cat_id": 40716,
        "meta_element_set_no": 999,
        "meta_rev_at_epoch": 56326,
        "meta_bstar": 9.8475e-05,
        "meta_mean_motion_dot": 7.98e-06,
        "meta_mean_motion_ddot": 0,
        "tle_line1": "1 40716U 15032B   25353.73047341  .00000798  00000+0  98475-4 0  9996",
        "tle_line2": "2 40716  97.6749 222.1166 0004799 298.9255  61.1479 14.85453343563261"
      },
      "geometry": {
        "type": "Point",
        "coordinates": [
          -158.39655214000607,
          69.136377678505
        ]
      }
    },
    {
      "type": "Feature",
      "properties": {
        "norad_id": 40717,
        "name": "DMC3-FM3",
        "group": "dmc",
        "lat": -44.893290697826394,
        "lon": -128.31101591504788,
        "alt_km": 616.1630632902388,
        "timestamp": "2025-12-19T22:41:52.045955+00:00",
        "meta_object_name": "DMC3-FM3",
        "meta_object_id": "2015-032C",
        "meta_epoch": "2025-12-19T19:40:06.177216",
        "meta_mean_motion": 14.85441888,
        "meta_eccentricity": 0.0004107,
        "meta_inclination": 97.6806,
        "meta_ra_of_asc_node": 223.8404,
        "meta_arg_of_pericenter": 301.0961,
        "meta_mean_anomaly": 58.9851,
        "meta_ephemeris_type": 0,
        "meta_classification_type": "U",
        "meta_norad_cat_id": 40717,
        "meta_element_set_no": 999,
        "meta_rev_at_epoch": 56328,
        "meta_bstar": 0.00010077,
        "meta_mean_motion_dot": 8.17e-06,
        "meta_mean_motion_ddot": 0,
        "tle_line1": "1 40717U 15032C   25353.81951594  .00000817  00000+0  10077-3 0  9993",
        "tle_line2": "2 40717  97.6806 223.8404 0004107 301.0961  58.9851 14.85441888563283"
      },
      "geometry": {
        "type": "Point",
        "coordinates": [
          -128.31101591504788,
          -44.893290697826394
        ]
      }
    }
  ]
}